{"type": "FeatureCollection", "features": [ {"type": "Feature", "properties": {"norad_id": 66858, "name": "STARLINK-35118", "group": "last-30-days", "lat": -42.60631489080772, "lon": -5.321896094772342, "alt_km": 347.574500651579, "timestamp": "2025-12-20T09:36:00.353878+00:00", "meta": {"OBJECT_NAME": "STARLINK-35118", "OBJECT_ID": "2025-281L", "EPOCH": "2025-12-20T04:00:00.999072", "MEAN_MOTION": 15.75422928, "ECCENTRICITY": 0.0001516, "INCLINATION": 43.0007, "RA_OF_ASC_NODE": 76.8483, "ARG_OF_PERICENTER": 272.5199, "MEAN_ANOMALY": 119.6221, "EPHEMERIS_TYPE": 0, "CLASSIFICATION_TYPE": "U", "NORAD_CAT_ID": 66858, "ELEMENT_SET_NO": 999, "REV_AT_EPOCH": 237, "BSTAR": -0.009046, "MEAN_MOTION_DOT": -0.01269015, "MEAN_MOTION_DDOT": 0}, "tle": {"line1": "1 66858U 25281L   25354.16667823 -.01269015  00000+0 -90460-2 0  9995", "line2": "2 66858  43.0007  76.8483 0001516 272.5199 119.6221 15.75422928  2372"}}, "geometry": {"type": "Point", "coordinates": [-5.321896094772342, -42.60631489080772]}}, {"type": "Feature", "properties": {"norad_id": 66859, "name": "STARLINK-35646", "group": "last-30-days", "lat": -42.36772179286909, "lon": -2.7505221324657323, "alt_km": 347.59932291560835, "timestamp": "2025-12-20T09:36:00.353888+00:00", "meta": {"OBJECT_NAME": "STARLINK-35646", "OBJECT_ID": "2025-281M", "EPOCH": "2025-12-20T04:00:00.999072", "MEAN_MOTION": 15.75423648, "ECCENTRICITY": 0.0001467, "INCLINATION": 43.0008, "RA_OF_ASC_NODE": 76.843, "ARG_OF_PERICENTER": 276.3337, "MEAN_ANOMALY": 117.7271, "EPHEMERIS_TYPE": 0, "CLASSIFICATION_TYPE": "U", "NORAD_CAT_ID": 66859, "ELEMENT_SET_NO": 999, "REV_AT_EPOCH": 258, "BSTAR": -0.0090669, "MEAN_MOTION_DOT": -0.0127165, "MEAN_MOTION_DDOT": 0}, "tle": {"line1": "1 66859U 25281M   25354.16667823 -.01271650  00000+0 -90669-2 0  9995", "line2": "2 66859  43.0008  76.8430 0001467 276.3337 117.7271 15.75423648  2584"}}, "geometry": {"type": "Point", "coordinates": [-2.7505221324657323, -42.36772179286909]}}, {"type": "Feature", "properties": {"norad_id": 66860, "name": "STARLINK-35987", "group": "last-30-days", "lat": -40.340837131611764, "lon": 9.705561641606828, "alt_km": 347.5390523392243, "timestamp": "2025-12-20T09:36:00.353898+00:00", "meta": {"OBJECT_NAME": "STARLINK-35987", "OBJECT_ID": "2025-281N", "EPOCH": "2025-12-20T04:00:00.999072", "MEAN_MOTION": 15.75424281, "ECCENTRICITY": 0.0001513, "INCLINATION": 43.0009, "RA_OF_ASC_NODE": 76.8192, "ARG_OF_PERICENTER": 268.4103, "MEAN_ANOMALY": 135.2339, "EPHEMERIS_TYPE": 0, "CLASSIFICATION_TYPE": "U", "NORAD_CAT_ID": 66860, "ELEMENT_SET_NO": 999, "REV_AT_EPOCH": 259, "BSTAR": -0.0090542, "MEAN_MOTION_DOT": -0.01270107, "MEAN_MOTION_DDOT": 0}, "tle": {"line1": "1 66860U 25281N   25354.16667823 -.01270107  00000+0 -90542-2 0  9993", "line2": "2 66860  43.0009  76.8192 0001513 268.4103 135.2339 15.75424281  2592"}}, "geometry": {"type": "Point", "coordinates": [9.705561641606828, -40.340837131611764]}}, {"type": "Feature", "properties": {"norad_id": 66861, "name": "STARLINK-35991", "group": "last-30-days", "lat": -41.719283509392284, "lon": 2.327931161087916, "alt_km": 347.5298728621474, "timestamp": "2025-12-20T09:36:00.353910+00:00", "meta": {"OBJECT_NAME": "STARLINK-35991", "OBJECT_ID": "2025-281P", "EPOCH": "2025-12-20T04:00:00.999072", "MEAN_MOTION": 15.75424386, "ECCENTRICITY": 0.0001548, "INCLINATION": 43.0009, "RA_OF_ASC_NODE": 76.8337, "ARG_OF_PERICENTER": 271.7069, "MEAN_ANOMALY": 126.1892, "EPHEMERIS_TYPE": 0, "CLASSIFICATION_TYPE": "U", "NORAD_CAT_ID": 66861, "ELEMENT_SET_NO": 999, "REV_AT_EPOCH": 258, "BSTAR": -0.0090599, "MEAN_MOTION_DOT": -0.01270855, "MEAN_MOTION_DDOT": 0}, "tle": {"line1": "1 66861U 25281P   25354.16667823 -.01270855  00000+0 -90599-2 0  9996", "line2": "2 66861  43.0009  76.8337 0001548 271.7069 126.1892 15.75424386  2588"}}, "geometry": {"type": "Point", "coordinates": [2.327931161087916, -41.719283509392284]}}, {"type": "Feature", "properties": {"norad_id": 66862, "name": "STARLINK-35974", "group": "last-30-days", "lat": -42.071871460963244, "lon": -0.19969372098787927, "alt_km": 347.5741035057408, "timestamp": "2025-12-20T09:36:00.353920+00:00", "meta": {"OBJECT_NAME": "STARLINK-35974", "OBJECT_ID": "2025-281Q", "EPOCH": "2025-12-20T04:00:00.999072", "MEAN_MOTION": 15.75419242, "ECCENTRICITY": 0.0001491, "INCLINATION": 43.0009, "RA_OF_ASC_NODE": 76.8387, "ARG_OF_PERICENTER": 275.6784, "MEAN_ANOMALY": 120.3018, "EPHEMERIS_TYPE": 0, "CLASSIFICATION_TYPE": "U", "NORAD_CAT_ID": 66862, "ELEMENT_SET_NO": 999, "REV_AT_EPOCH": 248, "BSTAR": -0.0090122, "MEAN_MOTION_DOT": -0.01264546, "MEAN_MOTION_DDOT": 0}, "tle": {"line1": "1 66862U 25281Q   25354.16667823 -.01264546  00000+0 -90122-2 0  9999", "line2": "2 66862  43.0009  76.8387 0001491 275.6784 120.3018 15.75419242  2488"}}, "geometry": {"type": "Point", "coordinates": [-0.19969372098787927, -42.071871460963244]}}, {"type": "Feature", "properties": {"norad_id": 66863, "name": "STARLINK-36134", "group": "last-30-days", "lat": -41.3134699294681, "lon": 4.816310514129769, "alt_km": 347.4689609607294, "timestamp": "2025-12-20T09:36:00.353945+00:00", "meta": {"OBJECT_NAME": "STARLINK-36134", "OBJECT_ID": "2025-281R", "EPOCH": "2025-12-20T04:00:00.999072", "MEAN_MOTION": 15.75424446, "ECCENTRICITY": 0.0001587, "INCLINATION": 43.0009, "RA_OF_ASC_NODE": 76.8292, "ARG_OF_PERICENTER": 280.0047, "MEAN_ANOMALY": 119.8063, "EPHEMERIS_TYPE": 0, "CLASSIFICATION_TYPE": "U", "NORAD_CAT_ID": 66863, "ELEMENT_SET_NO": 999, "REV_AT_EPOCH": 258, "BSTAR": -0.0090436, "MEAN_MOTION_DOT": -0.01268816, "MEAN_MOTION_DDOT": 0}, "tle": {"line1": "1 66863U 25281R   25354.16667823 -.01268816  00000+0 -90436-2 0  9992", "line2": "2 66863  43.0009  76.8292 0001587 280.0047 119.8063 15.75424446  2588"}}, "geometry": {"type": "Point", "coordinates": [4.816310514129769, -41.3134699294681]}}, {"type": "Feature", "properties": {"norad_id": 66864, "name": "STARLINK-36070", "group": "last-30-days", "lat": -40.8541298178498, "lon": 7.2731578373857, "alt_km": 347.6343779233948, "timestamp": "2025-12-20T09:36:00.353956+00:00", "meta": {"OBJECT_NAME": "STARLINK-36070", "OBJECT_ID": "2025-281S", "EPOCH": "2025-12-20T04:00:00.999072", "MEAN_MOTION": 15.75426319, "ECCENTRICITY": 0.0001312, "INCLINATION": 43.0009, "RA_OF_ASC_NODE": 76.8238, "ARG_OF_PERICENTER": 281.5697, "MEAN_ANOMALY": 120.1551, "EPHEMERIS_TYPE": 0, "CLASSIFICATION_TYPE": "U", "NORAD_CAT_ID": 66864, "ELEMENT_SET_NO": 999, "REV_AT_EPOCH": 262, "BSTAR": -0.009059, "MEAN_MOTION_DOT": -0.01270724, "MEAN_MOTION_DDOT": 0}, "tle": {"line1": "1 66864U 25281S   25354.16667823 -.01270724  00000+0 -90590-2 0  9995", "line2": "2 66864  43.0009  76.8238 0001312 281.5697 120.1551 15.75426319  2625"}}, "geometry": {"type": "Point", "coordinates": [7.2731578373857, -40.8541298178498]}}, {"type": "Feature", "properties": {"norad_id": 66865, "name": "STARLINK-36117", "group": "last-30-days", "lat": -39.77852030402306, "lon": 12.094236912289494, "alt_km": 347.492983383896, "timestamp": "2025-12-20T09:36:00.353967+00:00", "meta": {"OBJECT_NAME": "STARLINK-36117", "OBJECT_ID": "2025-281T", "EPOCH": "2025-12-20T04:00:00.999072", "MEAN_MOTION": 15.75423674, "ECCENTRICITY": 0.0001569, "INCLINATION": 43.0009, "RA_OF_ASC_NODE": 76.8148, "ARG_OF_PERICENTER": 268.2185, "MEAN_ANOMALY": 137.3439, "EPHEMERIS_TYPE": 0, "CLASSIFICATION_TYPE": "U", "NORAD_CAT_ID": 66865, "ELEMENT_SET_NO": 999, "REV_AT_EPOCH": 259, "BSTAR": -0.0090467, "MEAN_MOTION_DOT": -0.01269162, "MEAN_MOTION_DDOT": 0}, "tle": {"line1": "1 66865U 25281T   25354.16667823 -.01269162  00000+0 -90467-2 0  9993", "line2": "2 66865  43.0009  76.8148 0001569 268.2185 137.3439 15.75423674  2596"}}, "geometry": {"type": "Point", "coordinates": [12.094236912289494, -39.77852030402306]}}, {"type": "Feature", "properties": {"norad_id": 66866, "name": "STARLINK-36126", "group": "last-30-days", "lat": -39.168449557037725, "lon": 14.439468081716816, "alt_km": 347.592929783601, "timestamp": "2025-12-20T09:36:00.353976+00:00", "meta": {"OBJECT_NAME": "STARLINK-36126", "OBJECT_ID": "2025-281U", "EPOCH": "2025-12-20T04:00:00.999072", "MEAN_MOTION": 15.75425081, "ECCENTRICITY": 0.0001351, "INCLINATION": 43.0009, "RA_OF_ASC_NODE": 76.8095, "ARG_OF_PERICENTER": 271.8265, "MEAN_ANOMALY": 135.6537, "EPHEMERIS_TYPE": 0, "CLASSIFICATION_TYPE": "U", "NORAD_CAT_ID": 66866, "ELEMENT_SET_NO": 999, "REV_AT_EPOCH": 262, "BSTAR": -0.0090644, "MEAN_MOTION_DOT": -0.01271361, "MEAN_MOTION_DDOT": 0}, "tle": {"line1": "1 66866U 25281U   25354.16667823 -.01271361  00000+0 -90644-2 0  9995", "line2": "2 66866  43.0009  76.8095 0001351 271.8265 135.6537 15.75425081  2624"}}, "geometry": {"type": "Point", "coordinates": [14.439468081716816, -39.168449557037725]}}, {"type": "Feature", "properties": {"norad_id": 66867, "name": "STARLINK-36101", "group": "last-30-days", "lat": -38.5135730840364, "lon": 16.738637793006404, "alt_km": 347.45123069215606, "timestamp": "2025-12-20T09:36:00.353986+00:00", "meta": {"OBJECT_NAME": "STARLINK-36101", "OBJECT_ID": "2025-281V", "EPOCH": "2025-12-20T04:00:00.999072", "MEAN_MOTION": 15.75425197, "ECCENTRICITY": 0.0001441, "INCLINATION": 43.0009, "RA_OF_ASC_NODE": 76.8054, "ARG_OF_PERICENTER": 287.0428, "MEAN_ANOMALY": 122.3543, "EPHEMERIS_TYPE": 0, "CLASSIFICATION_TYPE": "U", "NORAD_CAT_ID": 66867, "ELEMENT_SET_NO": 999, "REV_AT_EPOCH": 242, "BSTAR": -0.0090755, "MEAN_MOTION_DOT": -0.01272807, "MEAN_MOTION_DDOT": 0}, "tle": {"line1": "1 66867U 25281V   25354.16667823 -.01272807  00000+0 -90755-2 0  9995", "line2": "2 66867  43.0009  76.8054 0001441 287.0428 122.3543 15.75425197  2426"}}, "geometry": {"type": "Point", "coordinates": [16.738637793006404, -38.5135730840364]}}]}